ONEWEB-0624             
1 55165U 23004AB  23329.60469513  .00000378  00000+0  10140-2 0  9999
2 55165  87.9118 176.4787 0001860  77.5113 282.6224 13.12446699 45467
ONEWEB-0625             
1 55166U 23004AC  23329.68850385  .00000086  00000+0  18890-3 0  9996
2 55166  87.9206 191.6587 0001462  71.4674 288.6616 13.17647254 44517
ONEWEB-0626             
1 55167U 23004AD  23329.67584661  .00000066  00000+0  13661-3 0  9996
2 55167  87.9222 191.6549 0001694 100.6149 259.5173 13.17650179 44518
ONEWEB-0627             
1 55168U 23004AE  23329.66953639 -.00000077  00000+0 -23219-3 0  9995
2 55168  87.9199 191.6667 0002490  83.7534 276.3881 13.17646866 44518
ONEWEB-0628             
1 55169U 23004AF  23329.65867929  .00000360  00000+0  96565-3 0  9998
2 55169  87.8934 176.5019 0002057  73.8079 286.3276 13.12440920 45452
ONEWEB-0629             
1 55170U 23004AG  23329.58725152  .00000027  00000+0  35405-4 0  9990
2 55170  87.9220 191.6724 0001912  65.2733 294.8597 13.17650195 44502
ONEWEB-0631             
1 55171U 23004AH  23330.00001157  .00032728  00000+0  69239-1 0  9994
2 55171  87.9477 161.2433 0000877  84.5023 205.9318 13.30564206  5505
ONEWEB-0709             
1 55172U 23004AJ  23329.72026691  .00000424  00000+0  11613-2 0  9994
2 55172  87.9010 206.7843 0002210 112.3068 247.8295 13.11419781 43395
